[
   {
      "name": "STARLINK-1854",
      "line1": "1 47141U 20088V   21092.91668981  .00042969  00000-0  28888-2 0  9993",
      "line2": "2 47141  53.0551 100.0924 0001541  76.4452 242.4984 15.06364196  1794",
      "drg": 288.88,
      "inc": 53.0551,
      "ran": 100.0924,
      "ecc": 0.0001541,
      "aop": 76.4452,
      "man": 242.4984,
      "mmo": 15.06364196,
      "sma": 6925.4583
   },
   {
      "name": "STARLINK-1855",
      "line1": "1 47142U 20088W   21092.91668981  .00035051  00000-0  23630-2 0  9998",
      "line2": "2 47142  53.0537 120.0927 0000888 143.9534  39.9751 15.06358152  1851",
      "drg": 236.3,
      "inc": 53.0537,
      "ran": 120.0927,
      "ecc": 8.88e-05,
      "aop": 143.9534,
      "man": 39.9751,
      "mmo": 15.06358152,
      "sma": 6925.47682
   },
   {
      "name": "STARLINK-1856",
      "line1": "1 47143U 20088X   21092.91668981  .00040837  00000-0  27474-2 0  9997",
      "line2": "2 47143  53.0489 100.1263 0001252  66.9462  26.9517 15.06362661  1801",
      "drg": 274.74,
      "inc": 53.0489,
      "ran": 100.1263,
      "ecc": 0.0001252,
      "aop": 66.9462,
      "man": 26.9517,
      "mmo": 15.06362661,
      "sma": 6925.463
   },
   {
      "name": "STARLINK-1857",
      "line1": "1 47144U 20088Y   21092.91668981 -.00463130  00000-0 -26845-1 0  9995",
      "line2": "2 47144  53.0497  90.2959 0001351  73.0686 349.5408 15.14016174  1806",
      "drg": -2684.5,
      "inc": 53.0497,
      "ran": 90.2959,
      "ecc": 0.0001351,
      "aop": 73.0686,
      "man": 349.5408,
      "mmo": 15.14016174,
      "sma": 6902.10399
   },
   {
      "name": "STARLINK-1858",
      "line1": "1 47145U 20088Z   21092.91668981 -.00466728  00000-0 -26946-1 0  9994",
      "line2": "2 47145  53.0523  90.4462 0002354 286.8545 170.8998 15.14169223  1803",
      "drg": -2694.6,
      "inc": 53.0523,
      "ran": 90.4462,
      "ecc": 0.0002354,
      "aop": 286.8545,
      "man": 170.8998,
      "mmo": 15.14169223,
      "sma": 6901.63888
   },
   {
      "name": "STARLINK-1859",
      "line1": "1 47146U 20088AA  21092.91668981  .00039150  00000-0  26345-2 0  9992",
      "line2": "2 47146  53.0493 120.0970 0000626 159.7613 249.1786 15.06373795  1850",
      "drg": 263.45,
      "inc": 53.0493,
      "ran": 120.097,
      "ecc": 6.26e-05,
      "aop": 159.7613,
      "man": 249.1786,
      "mmo": 15.06373795,
      "sma": 6925.42887
   },
   {
      "name": "STARLINK-1860",
      "line1": "1 47147U 20088AB  21092.91668981  .00044821  00000-0  30123-2 0  9993",
      "line2": "2 47147  53.0545 110.0702 0000418  92.2696 306.6172 15.06357599  1865",
      "drg": 301.23,
      "inc": 53.0545,
      "ran": 110.0702,
      "ecc": 4.18e-05,
      "aop": 92.2696,
      "man": 306.6172,
      "mmo": 15.06357599,
      "sma": 6925.47851
   },
   {
      "name": "STARLINK-1861",
      "line1": "1 47148U 20088AC  21092.91668981  .00035725  00000-0  24074-2 0  9995",
      "line2": "2 47148  53.0501 100.0980 0001511  64.1932 109.6696 15.06364855  1855",
      "drg": 240.74,
      "inc": 53.0501,
      "ran": 100.098,
      "ecc": 0.0001511,
      "aop": 64.1932,
      "man": 109.6696,
      "mmo": 15.06364855,
      "sma": 6925.45628
   },
   {
      "name": "STARLINK-1862",
      "line1": "1 47149U 20088AD  21092.91668981  .00045689  00000-0  30685-2 0  9991",
      "line2": "2 47149  53.0540 110.0788 0001394  67.4231 311.3944 15.06374110  1867",
      "drg": 306.85,
      "inc": 53.054,
      "ran": 110.0788,
      "ecc": 0.0001394,
      "aop": 67.4231,
      "man": 311.3944,
      "mmo": 15.0637411,
      "sma": 6925.42791
   },
   {
      "name": "STARLINK-1863",
      "line1": "1 47150U 20088AE  21092.91668981  .00043867  00000-0  29468-2 0  9996",
      "line2": "2 47150  53.0672 100.0299 0001702  63.1393 350.6624 15.06384595  1854",
      "drg": 294.68,
      "inc": 53.0672,
      "ran": 100.0299,
      "ecc": 0.0001702,
      "aop": 63.1393,
      "man": 350.6624,
      "mmo": 15.06384595,
      "sma": 6925.39577
   },
   {
      "name": "STARLINK-1864",
      "line1": "1 47151U 20088AF  21092.91668981  .00043299  00000-0  29100-2 0  9999",
      "line2": "2 47151  53.0464 110.1131 0000508 101.3574 317.4617 15.06373580  1855",
      "drg": 291.0,
      "inc": 53.0464,
      "ran": 110.1131,
      "ecc": 5.08e-05,
      "aop": 101.3574,
      "man": 317.4617,
      "mmo": 15.0637358,
      "sma": 6925.42953
   },
   {
      "name": "STARLINK-1866",
      "line1": "1 47152U 20088AG  21092.91668981  .00036550  00000-0  24618-2 0  9991",
      "line2": "2 47152  53.0546 110.1003 0000988  83.0445  55.7343 15.06372283  1756",
      "drg": 246.18,
      "inc": 53.0546,
      "ran": 110.1003,
      "ecc": 9.88e-05,
      "aop": 83.0445,
      "man": 55.7343,
      "mmo": 15.06372283,
      "sma": 6925.43351
   },
   {
      "name": "STARLINK-1867",
      "line1": "1 47153U 20088AH  21092.91668981  .00041256  00000-0  27755-2 0  9996",
      "line2": "2 47153  53.0543 115.0765 0000498 113.1931 163.3413 15.06358793  1758",
      "drg": 277.55,
      "inc": 53.0543,
      "ran": 115.0765,
      "ecc": 4.98e-05,
      "aop": 113.1931,
      "man": 163.3413,
      "mmo": 15.06358793,
      "sma": 6925.47486
   },
   {
      "name": "STARLINK-1868",
      "line1": "1 47154U 20088AJ  21092.91668981  .00040950  00000-0  27543-2 0  9992",
      "line2": "2 47154  53.0559 100.0876 0001511  64.6417 229.1786 15.06369993  1757",
      "drg": 275.43,
      "inc": 53.0559,
      "ran": 100.0876,
      "ecc": 0.0001511,
      "aop": 64.6417,
      "man": 229.1786,
      "mmo": 15.06369993,
      "sma": 6925.44053
   },
   {
      "name": "STARLINK-1869",
      "line1": "1 47155U 20088AK  21092.91668981 -.00006550  00000-0 -42127-3 0  9999",
      "line2": "2 47155  53.0545 120.0981 0000556 145.9812 317.8998 15.06401288  1857",
      "drg": -42.127,
      "inc": 53.0545,
      "ran": 120.0981,
      "ecc": 5.56e-05,
      "aop": 145.9812,
      "man": 317.8998,
      "mmo": 15.06401288,
      "sma": 6925.34461
   },
   {
      "name": "STARLINK-1870",
      "line1": "1 47156U 20088AL  21092.91668981  .00039977  00000-0  12184-2 0  9996",
      "line2": "2 47156  53.0536  89.0081 0010148 333.4424 167.0677 15.33553789  1767",
      "drg": 121.84,
      "inc": 53.0536,
      "ran": 89.0081,
      "ecc": 0.0010148,
      "aop": 333.4424,
      "man": 167.0677,
      "mmo": 15.33553789,
      "sma": 6843.35651
   },
   {
      "name": "STARLINK-1871",
      "line1": "1 47157U 20088AM  21092.91668981  .00040363  00000-0  27144-2 0  9990",
      "line2": "2 47157  53.0559 110.0916 0000968  84.3675 174.4227 15.06382728  1759",
      "drg": 271.44,
      "inc": 53.0559,
      "ran": 110.0916,
      "ecc": 9.68e-05,
      "aop": 84.3675,
      "man": 174.4227,
      "mmo": 15.06382728,
      "sma": 6925.4015
   },
   {
      "name": "STARLINK-1873",
      "line1": "1 47158U 20088AN  21092.91668981  .00037634  00000-0  25338-2 0  9991",
      "line2": "2 47158  53.0420 100.1418 0001558  73.4769  60.3757 15.06372697  1758",
      "drg": 253.38,
      "inc": 53.042,
      "ran": 100.1418,
      "ecc": 0.0001558,
      "aop": 73.4769,
      "man": 60.3757,
      "mmo": 15.06372697,
      "sma": 6925.43224
   },
   {
      "name": "STARLINK-1874",
      "line1": "1 47159U 20088AP  21092.91668981  .00035954  00000-0  24216-2 0  9999",
      "line2": "2 47159  53.0546 110.0986 0000572  77.1915  81.6649 15.06380664  1756",
      "drg": 242.16,
      "inc": 53.0546,
      "ran": 110.0986,
      "ecc": 5.72e-05,
      "aop": 77.1915,
      "man": 81.6649,
      "mmo": 15.06380664,
      "sma": 6925.40782
   },
   {
      "name": "STARLINK-1875",
      "line1": "1 47160U 20088AQ  21092.91668981  .00039238  00000-0  26408-2 0  9995",
      "line2": "2 47160  53.0553 100.0876 0001620  75.8677 197.9151 15.06367519  1751",
      "drg": 264.08,
      "inc": 53.0553,
      "ran": 100.0876,
      "ecc": 0.000162,
      "aop": 75.8677,
      "man": 197.9151,
      "mmo": 15.06367519,
      "sma": 6925.44811
   },
   {
      "name": "STARLINK-1876",
      "line1": "1 47161U 20088AR  21092.91668981  .00042519  00000-0  28592-2 0  9998",
      "line2": "2 47161  53.0569 100.0928 0001418  62.6989 251.1573 15.06360738  1759",
      "drg": 285.92,
      "inc": 53.0569,
      "ran": 100.0928,
      "ecc": 0.0001418,
      "aop": 62.6989,
      "man": 251.1573,
      "mmo": 15.06360738,
      "sma": 6925.46889
   },
   {
      "name": "STARLINK-1877",
      "line1": "1 47162U 20088AS  21092.91668981  .00045459  00000-0  30537-2 0  9997",
      "line2": "2 47162  53.0533 110.0780 0000741  98.2410 240.5057 15.06368515  1750",
      "drg": 305.37,
      "inc": 53.0533,
      "ran": 110.078,
      "ecc": 7.41e-05,
      "aop": 98.241,
      "man": 240.5057,
      "mmo": 15.06368515,
      "sma": 6925.44506
   },
   {
      "name": "STARLINK-1878",
      "line1": "1 47163U 20088AT  21092.91668981  .00036350  00000-0  24492-2 0  9991",
      "line2": "2 47163  53.0546 120.0971 0000654 146.0939  82.9121 15.06361709  1757",
      "drg": 244.92,
      "inc": 53.0546,
      "ran": 120.0971,
      "ecc": 6.54e-05,
      "aop": 146.0939,
      "man": 82.9121,
      "mmo": 15.06361709,
      "sma": 6925.46592
   },
   {
      "name": "STARLINK-1879",
      "line1": "1 47164U 20088AU  21092.91668981 -.00463318  00000-0 -26659-1 0  9998",
      "line2": "2 47164  53.0518  90.2980 0001450  65.0055  49.7298 15.14276613  1764",
      "drg": -2665.9,
      "inc": 53.0518,
      "ran": 90.298,
      "ecc": 0.000145,
      "aop": 65.0055,
      "man": 49.7298,
      "mmo": 15.14276613,
      "sma": 6901.31258
   }
]